MALLIGYONG-1            
1 58400U 23179A   24058.85339809  .00006119  00000+0  27717-3 0  9996
2 58400  97.4194 307.3474 0007924 294.0854  65.9552 15.21208157 14947
